MEAN_MOTION;ECCENTRICITY;INCLINATION;RA_OF_ASC_NODE;ARG_OF_PERICENTER;MEAN_ANOMALY;BSTAR;MEAN_MOTION_DOT;MEAN_MOTION_DDOT;TYPE
0.99089875;0.001679;7.1256;53.2215;233.7668;349.2667;0;-8.2E-7;0;Intelsat
0.99090267;0.0016732;7.1273;53.2155;233.831;349.6858;0;-1.12E-6;0;Intelsat
0.99090605;0.0016688;7.1289;53.2102;233.8842;315.1084;0;-1.4E-6;0;Intelsat
0.9909075;0.0016669;7.1296;53.2077;233.9309;108.6591;0;-1.53E-6;0;Intelsat
0.99090888;0.0016644;7.1304;53.2048;233.9483;287.708;0;-1.68E-6;0;Intelsat
0.99090903;0.001664;7.1305;53.2044;233.9521;313.2849;0;-1.7E-6;0;Intelsat
0.99091149;0.0016596;7.1321;53.199;234.02;285.8822;0;-1.97E-6;0;Intelsat
0.99091155;0.001659;7.1322;53.1987;234.0296;306.915;0;-1.98E-6;0;Intelsat
0.99091341;0.0016569;7.1333;53.1951;234.0708;170.0112;0;-2.15E-6;0;Intelsat
0.99091375;0.001656;7.1341;53.1925;234.0941;335.194;0;-2.27E-6;0;Intelsat
0.99091516;0.0016519;7.1357;53.1868;234.1775;333.3357;0;-2.51E-6;0;Intelsat
0.99091579;0.0016492;7.1374;53.1812;234.2557;331.5095;0;-2.71E-6;0;Intelsat
0.9909155;0.0016449;7.1391;53.1757;234.3548;329.6472;0;-2.88E-6;0;Intelsat
0.99091449;0.0016414;7.1408;53.1701;234.4552;327.7616;0;-3.01E-6;0;Intelsat
0.99091303;0.0016373;7.1425;53.1648;234.5602;325.9014;0;-3.09E-6;0;Intelsat
0.99091078;0.0016325;7.1442;53.1594;234.6782;324.0196;0;-3.13E-6;0;Intelsat
0.99090983;0.0016305;7.145;53.1569;234.7013;129.1206;0;-3.14E-6;0;Intelsat
0.99090769;0.0016279;7.146;53.154;234.7885;326.2302;0;-3.12E-6;0;Intelsat
0.99090579;0.0016255;7.1467;53.1516;234.817;127.4763;0;-3.1E-6;0;Intelsat
0.9909038;0.0016225;7.1476;53.1488;234.9082;320.1986;0;-3.06E-6;0;Intelsat
0.99090151;0.0016199;7.1487;53.1455;234.9506;188.1497;0;-3.01E-6;0;Intelsat
0.99089938;0.0016168;7.1495;53.143;235.023;349.3768;0;-2.95E-6;0;Intelsat
0.99089497;0.0016105;7.1511;53.1381;235.1281;320.7646;0;-2.8E-6;0;Intelsat
0.99089014;0.0016051;7.1528;53.1329;235.227;314.5759;0;-2.61E-6;0;Intelsat
0.99088504;0.0015988;7.1546;53.1277;235.322;312.6877;0;-2.38E-6;0;Intelsat
0.9908825;0.0015957;7.1554;53.1251;235.3585;131.7779;0;-2.25E-6;0;Intelsat
0.9908825;0.0015957;7.1554;53.1251;235.3585;131.7779;0;-2.25E-6;0;Intelsat
0.9908798;0.0015921;7.1563;53.1225;235.4076;310.8106;0;-2.11E-6;0;Intelsat
0.99087495;0.0015847;7.1581;53.1173;235.4848;308.9681;0;-1.83E-6;0;Intelsat
0.99087189;0.0015808;7.1591;53.1144;235.53;153.6119;0;-1.65E-6;0;Intelsat
0.99086952;0.0015767;7.1599;53.1118;235.5537;332.7044;0;-1.5E-6;0;Intelsat
0.990867;0.0015735;7.1608;53.1093;235.5899;151.7889;0;-1.34E-6;0;Intelsat
0.99086493;0.0015693;7.1617;53.1067;235.6066;330.869;0;-1.19E-6;0;Intelsat
0.99086115;0.0015628;7.1633;53.1021;235.656;303.4294;0;-9.0E-7;0;Intelsat
0.99086083;0.0015624;7.1634;53.1017;235.6532;329.0117;0;-8.8E-7;0;Intelsat
0.99085734;0.0015542;7.165;53.0968;235.6837;313.5617;0;-6.0E-7;0;Intelsat
0.99085418;0.0015469;7.1666;53.0918;235.6992;299.8156;0;-3.3E-7;0;Intelsat
0.99085384;0.0015465;7.1669;53.0911;235.6936;346.2576;0;-3.0E-7;0;Intelsat
0.99085201;0.0015397;7.1684;53.0864;235.6924;309.7735;0;-8.0E-8;0;Intelsat
0.99085033;0.0015329;7.17;53.0812;235.6739;296.2694;0;1.3E-7;0;Intelsat
0.99084923;0.0015262;7.1718;53.0754;235.6369;316.5009;0;3.2E-7;0;Intelsat
0.99084921;0.0015198;7.1734;53.0703;235.5998;292.7584;0;4.5E-7;0;Intelsat
0.99084936;0.0015194;7.1735;53.0699;235.592;318.3461;0;4.6E-7;0;Intelsat
0.99085026;0.0015146;7.1751;53.0648;235.5603;291.0092;0;5.5E-7;0;Intelsat
0.99085138;0.0015073;7.1767;53.0594;235.5147;289.2384;0;6.1E-7;0;Intelsat
0.99085387;0.0015019;7.1785;53.0538;235.4738;306.3126;0;6.4E-7;0;Intelsat
0.99085647;0.0014974;7.1801;53.0489;235.452;285.7355;0;6.2E-7;0;Intelsat
0.99085994;0.0014912;7.1819;53.0433;235.4232;307.8457;0;5.7E-7;0;Intelsat
0.99086588;0.0014831;7.1844;53.0356;235.3897;126.9302;0;4.3E-7;0;Intelsat
0.99086776;0.0014809;7.1851;53.0334;235.3874;280.4424;0;3.7E-7;0;Intelsat
0.99087217;0.0014753;7.1868;53.0283;235.3732;278.6645;0;2.2E-7;0;Intelsat
0.99087497;0.0014716;7.1879;53.025;235.3571;148.9385;0;1.1E-7;0;Intelsat
0.9908765;0.0014701;7.1885;53.0232;235.3704;276.8868;0;4.0E-8;0;Intelsat
0.99088181;0.0014635;7.1903;53.0178;235.3721;300.449;0;-1.8E-7;0;Intelsat
0.99088417;0.0014596;7.1913;53.0149;235.3606;145.3892;0;-3.0E-7;0;Intelsat
0.99088498;0.0014588;7.1916;53.0141;235.362;213.5165;0;-3.5E-7;0;Intelsat
0.99088575;0.0014576;7.1919;53.013;235.3794;286.627;0;-3.9E-7;0;Intelsat
0.99088884;0.0014542;7.1929;53.0099;235.3805;143.5908;0;-5.3E-7;0;Intelsat
0.99089114;0.0014506;7.1938;53.0074;235.3921;318.6159;0;-6.4E-7;0;Intelsat
0.99089514;0.001443;7.1955;53.0023;235.3883;320.8987;0;-8.8E-7;0;Intelsat
0.99089871;0.001436;7.1972;52.9973;235.3904;318.0264;0;-1.11E-6;0;Intelsat
0.99090198;0.0014283;7.199;52.9921;235.3753;331.8681;0;-1.34E-6;0;Intelsat
0.99090415;0.0014225;7.2003;52.9883;235.3814;260.4654;0;-1.5E-6;0;Intelsat
0.99090555;0.0014176;7.2015;52.985;235.3636;134.7398;0;-1.63E-6;0;Intelsat
0.99090672;0.001413;7.2023;52.9826;235.3409;313.8576;0;-1.73E-6;0;Intelsat
0.99090804;0.0014058;7.2039;52.9781;235.3194;286.483;0;-1.89E-6;0;Intelsat
0.99090855;0.001402;7.2049;52.9754;235.2959;131.213;0;-1.98E-6;0;Intelsat
0.99090903;0.0013968;7.2058;52.9727;235.2488;328.8477;0;-2.06E-6;0;Intelsat
0.99090911;0.0013893;7.2074;52.9682;235.1948;308.6393;0;-2.18E-6;0;Intelsat
0.99090902;0.0013888;7.2075;52.9678;235.181;335.3146;0;-2.19E-6;0;Intelsat
0.99090948;0.0013878;7.2084;52.9654;235.2122;153.3085;0;-2.24E-6;0;Intelsat
0.99090925;0.001384;7.2091;52.9635;235.1626;301.6003;0;-2.29E-6;0;Intelsat
0.99090905;0.001381;7.2101;52.9606;235.1389;151.6337;0;-2.34E-6;0;Intelsat
0.99090797;0.0013776;7.2109;52.9582;235.0809;330.7864;0;-2.38E-6;0;Intelsat
0.99090744;0.0013753;7.2117;52.9558;235.0667;149.8773;0;-2.41E-6;0;Intelsat
0.99090592;0.0013694;7.2134;52.9509;234.9719;148.2463;0;-2.45E-6;0;Intelsat
0.9909046;0.0013656;7.2142;52.9484;234.8938;327.426;0;-2.47E-6;0;Intelsat
0.99089905;0.0013544;7.2175;52.9381;234.634;324.1295;0;-2.47E-6;0;Intelsat
0.99089862;0.0013539;7.2177;52.9375;234.617;7.8253;0;-2.46E-6;0;Intelsat
0.99089608;0.0013518;7.2191;52.9329;234.5397;322.4472;0;-2.42E-6;0;Intelsat
0.99089254;0.0013478;7.2208;52.9277;234.3991;320.8241;0;-2.35E-6;0;Intelsat
0.99088894;0.0013441;7.2224;52.9225;234.2519;318.4559;0;-2.25E-6;0;Intelsat
0.99088528;0.0013406;7.2241;52.9173;234.1087;319.8902;0;-2.12E-6;0;Intelsat
0.99088061;0.0013373;7.2261;52.9112;233.9747;37.2269;0;-1.93E-6;0;Intelsat
0.99087743;0.0013356;7.2276;52.9068;233.9005;351.2472;0;-1.77E-6;0;Intelsat
0.99087422;0.0013334;7.229;52.9024;233.8076;312.5059;0;-1.6E-6;0;Intelsat
0.99087048;0.0013306;7.2307;52.8976;233.7091;310.8076;0;-1.39E-6;0;Intelsat
0.99086757;0.0013282;7.2322;52.8931;233.6271;283.5192;0;-1.19E-6;0;Intelsat
0.99086577;0.0013276;7.2332;52.89;233.6356;153.7803;0;-1.04E-6;0;Intelsat
0.990864;0.0013257;7.2343;52.8868;233.6374;37.1956;0;-8.9E-7;0;Intelsat
0.99086222;0.0013245;7.2354;52.8836;233.5969;279.9897;0;-7.4E-7;0;Intelsat
0.99086181;0.0013236;7.2357;52.8828;233.6083;331.1063;0;-7.1E-7;0;Intelsat
0.9908596;0.0013201;7.2373;52.8781;233.5537;330.1961;0;-4.9E-7;0;Intelsat
0.99085794;0.0013167;7.239;52.8733;233.5399;327.6149;0;-2.8E-7;0;Intelsat
0.990857;0.0013135;7.2406;52.8684;233.504;325.8349;0;-7.0E-8;0;Intelsat
0.99085638;0.0013087;7.2423;52.8633;233.4312;344.4884;0;1.3E-7;0;Intelsat
0.99085626;0.0013043;7.244;52.8585;233.3587;340.6635;0;3.0E-7;0;Intelsat
0.990857;0.0012997;7.2456;52.8538;233.2839;336.3391;0;4.5E-7;0;Intelsat
0.99085824;0.0012954;7.2473;52.8487;233.2122;353.0286;0;5.7E-7;0;Intelsat
0.99085867;0.0012939;7.2479;52.8471;233.1992;114.5165;0;6.1E-7;0;Intelsat
0.99085968;0.0012907;7.2489;52.8441;233.1184;332.1662;0;6.6E-7;0;Intelsat
0.99086185;0.0012858;7.2505;52.8394;233.0034;323.3525;0;7.2E-7;0;Intelsat
0.99086444;0.0012811;7.2522;52.8344;232.8729;332.6332;0;7.3E-7;0;Intelsat
0.99086499;0.0012785;7.2525;52.8334;232.7215;44.522;0;7.3E-7;0;Intelsat
0.9908679;0.0012737;7.2538;52.8293;232.5594;343.9789;0;7.1E-7;0;Intelsat
0.99087195;0.0012692;7.2556;52.8239;232.3622;15.9229;0;6.3E-7;0;Intelsat
0.99087528;0.0012645;7.2571;52.8192;232.1446;347.7424;0;5.2E-7;0;Intelsat
0.9908809;0.0012593;7.2592;52.8126;231.8089;101.3569;0;3.1E-7;0;Intelsat
0.99088383;0.0012554;7.2602;52.8093;231.5791;331.8168;0;1.8E-7;0;Intelsat
0.99088807;0.0012524;7.2618;52.8039;231.3347;330.2852;0;-5.0E-8;0;Intelsat
0.99089298;0.0012501;7.2634;52.7982;231.071;352.1831;0;-3.2E-7;0;Intelsat
0.99089664;0.0012474;7.2648;52.7937;230.7801;301.7029;0;-5.6E-7;0;Intelsat
0.99089691;0.0012475;7.2649;52.7933;230.7622;327.2858;0;-5.8E-7;0;Intelsat
0.9909014;0.001246;7.2665;52.788;230.524;325.7433;0;-8.7E-7;0;Intelsat
0.99090483;0.0012451;7.2681;52.7828;230.3038;315.7122;0;-1.16E-6;0;Intelsat
0.99090518;0.0012451;7.2682;52.7823;230.2787;347.6889;0;-1.19E-6;0;Intelsat
0.9909087;0.0012442;7.2698;52.7771;230.0459;340.6399;0;-1.47E-6;0;Intelsat
0.99091162;0.0012441;7.2714;52.7721;229.8463;336.1685;0;-1.75E-6;0;Intelsat
0.9909124;0.0012436;7.2719;52.7705;229.7584;89.4505;0;-1.84E-6;0;Intelsat
0.99091479;0.0012431;7.2736;52.7651;229.5298;113.2026;0;-2.12E-6;0;Intelsat
0.9909157;0.0012432;7.2746;52.7618;229.4546;341.1654;0;-2.28E-6;0;Intelsat
0.99091589;0.0012428;7.2748;52.7609;229.4045;46.2039;0;-2.32E-6;0;Intelsat
0.99091696;0.001242;7.2767;52.7551;229.1875;110.0038;0;-2.58E-6;0;Intelsat
0.990917;0.0012417;7.2777;52.7517;229.1327;343.8724;0;-2.7E-6;0;Intelsat
0.99091657;0.0012406;7.2793;52.7466;228.9426;339.8248;0;-2.86E-6;0;Intelsat
0.99091541;0.0012393;7.2809;52.7415;228.8035;335.5498;0;-2.97E-6;0;Intelsat
0.99091483;0.0012385;7.2814;52.7397;228.699;105.1915;0;-3.0E-6;0;Intelsat
0.99091283;0.0012369;7.283;52.7345;228.542;103.5576;0;-3.06E-6;0;Intelsat
0.99091006;0.0012351;7.2845;52.7296;228.4542;76.7873;0;-3.06E-6;0;Intelsat
0.99090785;0.0012343;7.2856;52.7261;228.3652;320.1754;0;-3.04E-6;0;Intelsat
0.99090372;0.0012321;7.2873;52.7208;228.1856;330.6098;0;-2.96E-6;0;Intelsat
0.99089966;0.0012298;7.2889;52.7156;228.0012;329.0262;0;-2.83E-6;0;Intelsat
